[ {"name": "STARLINK-4729", "line1": "1 53804U 22111AH  26192.75002315  .00018327  00000+0  94525-3 0  9998", "line2": "2 53804  53.1599  61.5309 0000799  63.8620 211.0240 15.16414039  5579"}, {"name": "STARLINK-4763", "line1": "1 53805U 22111AJ  26192.75002315  .00044443  00000+0  15629-2 0  9994", "line2": "2 53805  53.1608  51.2152 0001918  63.0752  28.4955 15.28943232  5685"}, {"name": "STARLINK-4768", "line1": "1 53806U 22111AK  26192.78876279 -.00000336  00000+0 -30363-5 0  9996", "line2": "2 53806  53.1614  51.6218 0001289  89.7212 270.3928 15.08835600212761"}, {"name": "STARLINK-4738", "line1": "1 53819U 22114B   26192.15117976  .00000204  00000+0  19456-4 0  9997", "line2": "2 53819  53.1582 107.9909 0003287  74.8784 285.2579 15.29354379211498"}, {"name": "STARLINK-4758", "line1": "1 53820U 22114C   26192.19680608 -.00000449  00000+0 -10097-4 0  9995", "line2": "2 53820  53.1597 109.6572 0001484  83.7363 276.3797 15.08817198211471"}, {"name": "STARLINK-4748", "line1": "1 53823U 22114F   26192.75002315  .00006426  00000+0  32531-3 0  9998", "line2": "2 53823  53.1608  61.5875 0000405  60.2441  35.9367 15.18213770  5670"}, {"name": "STARLINK-4757", "line1": "1 53824U 22114G   26192.18564791  .00000331  00000+0  38902-4 0  9995", "line2": "2 53824  53.1595 108.8925 0001408  92.4853 267.6300 15.08834788211391"}, {"name": "STARLINK-4751", "line1": "1 53825U 22114H   26192.18941765 -.00000363  00000+0 -47197-5 0  9990", "line2": "2 53825  53.1599 109.6099 0001187  89.2712 270.8416 15.08830765211473"}, {"name": "STARLINK-4756", "line1": "1 53826U 22114J   26192.17099441 -.00000014  00000+0  17223-4 0  9993", "line2": "2 53826  53.1610 109.4997 0001313  87.7140 272.4002 15.08832873211473"}, {"name": "STARLINK-4764", "line1": "1 53827U 22114K   26191.18844759  .00001265  00000+0  97578-4 0  9993", "line2": "2 53827  53.1591 114.0304 0001122  94.2159 265.8960 15.08839279211327"}, {"name": "STARLINK-4760", "line1": "1 53828U 22114L   26189.51772246 -.00000540  00000+0 -15831-4 0  9998", "line2": "2 53828  53.1597 121.3837 0001264  98.3527 261.7607 15.08825136211079"}, {"name": "STARLINK-4759", "line1": "1 53829U 22114M   26190.19116033  .00000446  00000+0  46110-4 0  9998", "line2": "2 53829  53.1594 118.4739 0001251  94.2928 265.8207 15.08834500211178"}, {"name": "STARLINK-4761", "line1": "1 53830U 22114N   26191.23257999 -.00000811  00000+0 -32853-4 0  9990", "line2": "2 53830  53.1600 113.5989 0001306  89.1172 270.9969 15.08833620211338"}, {"name": "STARLINK-4649", "line1": "1 53831U 22114P   26189.19387988 -.00000145  00000+0  89947-5 0  9991", "line2": "2 53831  53.1591 122.9179 0001310  91.7636 268.3506 15.08835209211021"}, {"name": "STARLINK-4747", "line1": "1 53832U 22114Q   26192.15257667  .00000230  00000+0  32545-4 0  9997", "line2": "2 53832  53.1598 109.3841 0001360  92.4668 267.6479 15.08833170211477"}, {"name": "STARLINK-4771", "line1": "1 53833U 22114R   26191.17099269  .00001244  00000+0  96271-4 0  9993", "line2": "2 53833  53.1604 113.9226 0001483  99.5142 260.6017 15.08837812211327"}, {"name": "STARLINK-4737", "line1": "1 53834U 22114S   26192.14520818  .00001236  00000+0  95729-4 0  9999", "line2": "2 53834  53.1595 109.3391 0001158  87.1704 272.9420 15.08839777211477"}, {"name": "STARLINK-4783", "line1": "1 53835U 22114T   26192.75242054 -.00000581  00000+0 -18406-4 0  9991", "line2": "2 53835  53.1594 106.7269 0001436  99.0430 261.0724 15.08839108211563"}, {"name": "STARLINK-4778", "line1": "1 53836U 22114U   26192.35512831 -.00052635  00000+0 -95315-3 0  9991", "line2": "2 53836  53.2170  85.4073 0001273  75.5926 284.5225 15.49057493211839"}, {"name": "STARLINK-4776", "line1": "1 53837U 22114V   26192.14889038 -.00000493  00000+0 -12861-4 0  9996", "line2": "2 53837  53.1612 109.3610 0001350  95.9947 264.1199 15.08839683211476"}, {"name": "STARLINK-4773", "line1": "1 53838U 22114W   26191.19675703  .00000453  00000+0  46594-4 0  9997", "line2": "2 53838  53.1618 104.1060 0001401  87.0745 273.0407 15.08832826211462"}, {"name": "STARLINK-4784", "line1": "1 53839U 22114X   26191.13786964  .00000942  00000+0  77269-4 0  9990", "line2": "2 53839  53.1604 104.4435 0001252  94.0085 266.1050 15.08837200211453"}, {"name": "STARLINK-4766", "line1": "1 53840U 22114Y   26192.17272911 -.00000504  00000+0 -44668-5 0  9993", "line2": "2 53840  53.1614  96.0220 0001082  71.6630 288.4489 15.31697441211665"}, {"name": "STARLINK-4750", "line1": "1 53841U 22114Z   26192.18665951 -.00000827  00000+0 -33903-4 0  9992", "line2": "2 53841  53.1610  99.6124 0001317  84.0809 276.0333 15.08834939211616"}, {"name": "STARLINK-4754", "line1": "1 53842U 22114AA  26192.37063484 -.00000079  00000+0  13146-4 0  9992", "line2": "2 53842  53.1602  98.6229 0001399 109.0410 251.0733 15.08832364211649"}, {"name": "STARLINK-4769", "line1": "1 53843U 22114AB  26192.18298243 -.00000584  00000+0 -18597-4 0  9992", "line2": "2 53843  53.1606  99.5867 0001573  67.5929 292.5229 15.08826604211616"}, {"name": "STARLINK-4745", "line1": "1 53844U 22114AC  26191.91502023  .00000082  00000+0  23641-4 0  9994", "line2": "2 53844  53.1610 100.7829 0001323  85.5955 274.5187 15.08029628211576"}]